{"type": "FeatureCollection", "features": [ {"type": "Feature", "properties": {"norad_id": 37550, "name": "IRIDIUM 33 DEB", "group": "iridium-33-debris", "lat": 77.06874657844122, "lon": -169.98038690720836, "alt_km": 659.576667274011, "timestamp": "2025-12-07T20:38:14.449494+00:00", "meta": {"OBJECT_NAME": "IRIDIUM 33 DEB", "OBJECT_ID": "1997-051XK", "EPOCH": "2025-12-06T21:15:18.690336", "MEAN_MOTION": 14.67089693, "ECCENTRICITY": 0.00053572, "INCLINATION": 86.377, "RA_OF_ASC_NODE": 26.47, "ARG_OF_PERICENTER": 124.88, "MEAN_ANOMALY": 235.2918, "EPHEMERIS_TYPE": 0, "CLASSIFICATION_TYPE": "U", "NORAD_CAT_ID": 37550, "ELEMENT_SET_NO": 999, "REV_AT_EPOCH": 86247, "BSTAR": 0.0020360196, "MEAN_MOTION_DOT": 0.00011461, "MEAN_MOTION_DDOT": 0}, "tle": {"line1": "1 37550U 97051XK  25340.88563299  .00011461  00000+0  20360-2 0  9991", "line2": "2 37550  86.3770  26.4700 0005357 124.8800 235.2918 14.67089693862475"}}, "geometry": {"type": "Point", "coordinates": [-169.98038690720836, 77.06874657844122]}}, {"type": "Feature", "properties": {"norad_id": 37562, "name": "IRIDIUM 33 DEB", "group": "iridium-33-debris", "lat": 40.66084745829052, "lon": -137.3922997383822, "alt_km": 683.5753856141018, "timestamp": "2025-12-07T20:38:14.449504+00:00", "meta": {"OBJECT_NAME": "IRIDIUM 33 DEB", "OBJECT_ID": "1997-051XX", "EPOCH": "2025-12-05T22:38:16.769760", "MEAN_MOTION": 14.56376175, "ECCENTRICITY": 0.00266622, "INCLINATION": 86.3751, "RA_OF_ASC_NODE": 46.5643, "ARG_OF_PERICENTER": 129.1222, "MEAN_ANOMALY": 47.463, "EPHEMERIS_TYPE": 0, "CLASSIFICATION_TYPE": "U", "NORAD_CAT_ID": 37562, "ELEMENT_SET_NO": 999, "REV_AT_EPOCH": 86229, "BSTAR": 0.0018491974, "MEAN_MOTION_DOT": 8.263e-05, "MEAN_MOTION_DDOT": 0}, "tle": {"line1": "1 37562U 97051XX  25339.94324965  .00008263  00000+0  18492-2 0  9993", "line2": "2 37562  86.3751  46.5643 0026662 129.1222  47.4630 14.56376175862290"}}, "geometry": {"type": "Point", "coordinates": [-137.3922997383822, 40.66084745829052]}}, {"type": "Feature", "properties": {"norad_id": 37565, "name": "IRIDIUM 33 DEB", "group": "iridium-33-debris", "lat": 6.104517036059762, "lon": 12.095525437349504, "alt_km": 723.2649153972543, "timestamp": "2025-12-07T20:38:14.449514+00:00", "meta": {"OBJECT_NAME": "IRIDIUM 33 DEB", "OBJECT_ID": "1997-051YA", "EPOCH": "2025-12-06T08:12:33.505344", "MEAN_MOTION": 14.51477956, "ECCENTRICITY": 0.00152608, "INCLINATION": 86.3496, "RA_OF_ASC_NODE": 12.3652, "ARG_OF_PERICENTER": 102.6626, "MEAN_ANOMALY": 257.6286, "EPHEMERIS_TYPE": 0, "CLASSIFICATION_TYPE": "U", "NORAD_CAT_ID": 37565, "ELEMENT_SET_NO": 999, "REV_AT_EPOCH": 65744, "BSTAR": 0.0010565174, "MEAN_MOTION_DOT": 4.246e-05, "MEAN_MOTION_DDOT": 0}, "tle": {"line1": "1 37565U 97051YA  25340.34205446  .00004246  00000+0  10565-2 0  9994", "line2": "2 37565  86.3496  12.3652 0015260 102.6626 257.6286 14.51477956657441"}}, "geometry": {"type": "Point", "coordinates": [12.095525437349504, 6.104517036059762]}}, {"type": "Feature", "properties": {"norad_id": 38017, "name": "IRIDIUM 33 DEB", "group": "iridium-33-debris", "lat": 38.94586505333344, "lon": -14.617735851546097, "alt_km": 666.1504737795822, "timestamp": "2025-12-07T20:38:14.449524+00:00", "meta": {"OBJECT_NAME": "IRIDIUM 33 DEB", "OBJECT_ID": "1997-051YD", "EPOCH": "2025-12-01T06:29:11.103360", "MEAN_MOTION": 14.48304289, "ECCENTRICITY": 0.009214, "INCLINATION": 86.3439, "RA_OF_ASC_NODE": 171.2047, "ARG_OF_PERICENTER": 141.8586, "MEAN_ANOMALY": 218.9187, "EPHEMERIS_TYPE": 0, "CLASSIFICATION_TYPE": "U", "NORAD_CAT_ID": 38017, "ELEMENT_SET_NO": 999, "REV_AT_EPOCH": 61236, "BSTAR": 0.0066574, "MEAN_MOTION_DOT": 0.00026341, "MEAN_MOTION_DDOT": 0}, "tle": {"line1": "1 38017U 97051YD  25335.27026740  .00026341  00000+0  66574-2 0  9992", "line2": "2 38017  86.3439 171.2047 0092140 141.8586 218.9187 14.48304289612362"}}, "geometry": {"type": "Point", "coordinates": [-14.617735851546097, 38.94586505333344]}}, {"type": "Feature", "properties": {"norad_id": 38022, "name": "IRIDIUM 33 DEB", "group": "iridium-33-debris", "lat": 56.32407887301335, "lon": 24.20032630533216, "alt_km": 716.0823582484418, "timestamp": "2025-12-07T20:38:14.449534+00:00", "meta": {"OBJECT_NAME": "IRIDIUM 33 DEB", "OBJECT_ID": "1997-051YJ", "EPOCH": "2025-12-03T09:43:50.752992", "MEAN_MOTION": 14.41155819, "ECCENTRICITY": 0.00470517, "INCLINATION": 86.2701, "RA_OF_ASC_NODE": 20.531, "ARG_OF_PERICENTER": 80.0356, "MEAN_ANOMALY": 280.615, "EPHEMERIS_TYPE": 0, "CLASSIFICATION_TYPE": "U", "NORAD_CAT_ID": 38022, "ELEMENT_SET_NO": 999, "REV_AT_EPOCH": 69059, "BSTAR": 0.0013840286, "MEAN_MOTION_DOT": 4.54e-05, "MEAN_MOTION_DDOT": 0}, "tle": {"line1": "1 38022U 97051YJ  25337.40544853  .00004540  00000+0  13840-2 0  9990", "line2": "2 38022  86.2701  20.5310 0047051  80.0356 280.6150 14.41155819690591"}}, "geometry": {"type": "Point", "coordinates": [24.20032630533216, 56.32407887301335]}}, {"type": "Feature", "properties": {"norad_id": 38028, "name": "IRIDIUM 33 DEB", "group": "iridium-33-debris", "lat": 66.17775102506907, "lon": 174.02837101422065, "alt_km": 712.4582762497066, "timestamp": "2025-12-07T20:38:14.449544+00:00", "meta": {"OBJECT_NAME": "IRIDIUM 33 DEB", "OBJECT_ID": "1997-051YQ", "EPOCH": "2025-12-06T19:12:19.598112", "MEAN_MOTION": 14.46166745, "ECCENTRICITY": 0.00294822, "INCLINATION": 86.3276, "RA_OF_ASC_NODE": 2.8528, "ARG_OF_PERICENTER": 139.7765, "MEAN_ANOMALY": 220.5627, "EPHEMERIS_TYPE": 0, "CLASSIFICATION_TYPE": "U", "NORAD_CAT_ID": 38028, "ELEMENT_SET_NO": 999, "REV_AT_EPOCH": 65409, "BSTAR": 0.00054862399, "MEAN_MOTION_DOT": 1.991e-05, "MEAN_MOTION_DDOT": 0}, "tle": {"line1": "1 38028U 97051YQ  25340.80022683  .00001991  00000+0  54862-3 0  9993", "line2": "2 38028  86.3276   2.8528 0029482 139.7765 220.5627 14.46166745654095"}}, "geometry": {"type": "Point", "coordinates": [174.02837101422065, 66.17775102506907]}}, {"type": "Feature", "properties": {"norad_id": 38228, "name": "IRIDIUM 33 DEB", "group": "iridium-33-debris", "lat": 19.317532750861073, "lon": 51.845874055728196, "alt_km": 846.5040134365108, "timestamp": "2025-12-07T20:38:14.449553+00:00", "meta": {"OBJECT_NAME": "IRIDIUM 33 DEB", "OBJECT_ID": "1997-051ZC", "EPOCH": "2025-12-05T11:24:42.525216", "MEAN_MOTION": 14.27249684, "ECCENTRICITY": 0.0063511, "INCLINATION": 86.2953, "RA_OF_ASC_NODE": 51.5576, "ARG_OF_PERICENTER": 213.0073, "MEAN_ANOMALY": 162.7695, "EPHEMERIS_TYPE": 0, "CLASSIFICATION_TYPE": "U", "NORAD_CAT_ID": 38228, "ELEMENT_SET_NO": 999, "REV_AT_EPOCH": 84678, "BSTAR": 0.00063038661, "MEAN_MOTION_DOT": 1.592e-05, "MEAN_MOTION_DDOT": 0}, "tle": {"line1": "1 38228U 97051ZC  25339.47549219  .00001592  00000+0  63039-3 0  9998", "line2": "2 38228  86.2953  51.5576 0063511 213.0073 162.7695 14.27249684846785"}}, "geometry": {"type": "Point", "coordinates": [51.845874055728196, 19.317532750861073]}}, {"type": "Feature", "properties": {"norad_id": 38241, "name": "IRIDIUM 33 DEB", "group": "iridium-33-debris", "lat": 2.6019363507981828, "lon": 172.58486216115452, "alt_km": 713.1530426801, "timestamp": "2025-12-07T20:38:14.449564+00:00", "meta": {"OBJECT_NAME": "IRIDIUM 33 DEB", "OBJECT_ID": "1997-051ZR", "EPOCH": "2025-12-05T18:18:10.298016", "MEAN_MOTION": 14.54799988, "ECCENTRICITY": 0.00056722, "INCLINATION": 86.3224, "RA_OF_ASC_NODE": 353.6772, "ARG_OF_PERICENTER": 87.2865, "MEAN_ANOMALY": 272.8992, "EPHEMERIS_TYPE": 0, "CLASSIFICATION_TYPE": "U", "NORAD_CAT_ID": 38241, "ELEMENT_SET_NO": 999, "REV_AT_EPOCH": 60099, "BSTAR": 0.0014749391, "MEAN_MOTION_DOT": 6.345e-05, "MEAN_MOTION_DDOT": 0}, "tle": {"line1": "1 38241U 97051ZR  25339.76261919  .00006345  00000+0  14749-2 0  9997", "line2": "2 38241  86.3224 353.6772 0005672  87.2865 272.8992 14.54799988600991"}}, "geometry": {"type": "Point", "coordinates": [172.58486216115452, 2.6019363507981828]}}, {"type": "Feature", "properties": {"norad_id": 38474, "name": "IRIDIUM 33 DEB", "group": "iridium-33-debris", "lat": 23.118573699255027, "lon": 13.752544997869872, "alt_km": 719.5198573659136, "timestamp": "2025-12-07T20:38:14.449573+00:00", "meta": {"OBJECT_NAME": "IRIDIUM 33 DEB", "OBJECT_ID": "1997-051AAB", "EPOCH": "2025-12-06T19:41:55.119840", "MEAN_MOTION": 14.50656984, "ECCENTRICITY": 0.00279512, "INCLINATION": 86.3423, "RA_OF_ASC_NODE": 12.6404, "ARG_OF_PERICENTER": 106.4203, "MEAN_ANOMALY": 254.0078, "EPHEMERIS_TYPE": 0, "CLASSIFICATION_TYPE": "U", "NORAD_CAT_ID": 38474, "ELEMENT_SET_NO": 999, "REV_AT_EPOCH": 65232, "BSTAR": 0.0010644651, "MEAN_MOTION_DOT": 4.219e-05, "MEAN_MOTION_DDOT": 0}, "tle": {"line1": "1 38474U 97051AAB 25340.82077685  .00004219  00000+0  10645-2 0  9998", "line2": "2 38474  86.3423  12.6404 0027951 106.4203 254.0078 14.50656984652323"}}, "geometry": {"type": "Point", "coordinates": [13.752544997869872, 23.118573699255027]}}, {"type": "Feature", "properties": {"norad_id": 39777, "name": "IRIDIUM 33 DEB", "group": "iridium-33-debris", "lat": -28.826568999030137, "lon": 175.1829713291708, "alt_km": 736.9707242030254, "timestamp": "2025-12-07T20:38:14.449583+00:00", "meta": {"OBJECT_NAME": "IRIDIUM 33 DEB", "OBJECT_ID": "1997-051AAJ", "EPOCH": "2025-12-06T00:14:36.412224", "MEAN_MOTION": 14.5619016, "ECCENTRICITY": 0.00596608, "INCLINATION": 85.9622, "RA_OF_ASC_NODE": 178.3085, "ARG_OF_PERICENTER": 209.6605, "MEAN_ANOMALY": 150.1216, "EPHEMERIS_TYPE": 0, "CLASSIFICATION_TYPE": "U", "NORAD_CAT_ID": 39777, "ELEMENT_SET_NO": 999, "REV_AT_EPOCH": 60087, "BSTAR": 0.0037764101, "MEAN_MOTION_DOT": 0.00017134, "MEAN_MOTION_DDOT": 0}, "tle": {"line1": "1 39777U 97051AAJ 25340.01014366  .00017134  00000+0  37764-2 0  9994", "line2": "2 39777  85.9622 178.3085 0059660 209.6605 150.1216 14.56190160600873"}}, "geometry": {"type": "Point", "coordinates": [175.1829713291708, -28.826568999030137]}}]}